STARLINK-4621           
1 53676U 22105AE  26195.62847482 -.00000229  00000+0 -11971-4 0  9998
2 53676  97.2833  73.2066 0001736  93.3539 266.7887 15.05657449212335
SHERPA-LTC2             
1 53754U 22107BG  26195.45406742  .00002106  00000+0  12010-3 0  9996
2 53754  53.2368 104.8874 0392836 302.6373  53.7262 14.69914994206559
CENTISPACE-1 S3         
1 53757U 22108A   26195.56731585  .00000120  00000+0  62191-4 0  9998
2 53757  53.5338 302.0386 0010737  63.2001 297.0071 14.61282842205537
CENTISPACE-1 S4         
1 53758U 22108B   26195.60712637  .00000168  00000+0  71020-4 0  9994
2 53758  53.5312 299.2612 0010042  52.7481 307.4409 14.61971603205578
BLUEWALKER-3            
1 53807U 22111AL  26195.46479191  .00003807  00000+0  10857-3 0  9995
2 53807  53.2288 265.8794 0004555 263.3049  96.7438 15.38604732214407
YUNHAI-1 03             
1 53877U 22115A   26195.56352240  .00000215  00000+0  95081-4 0  9995
2 53877  98.5543 193.3643 0004185 341.4848  18.6184 14.32736310199439
CENTISPACE-1 S5         
1 54020U 22126A   26195.54910150  .00000372  00000+0  10855-3 0  9995
2 54020  54.9989 103.4624 0014405 123.2184 237.0194 14.63056005201045
CENTISPACE-1 S6         
1 54021U 22126B   26195.55599620  .00000268  00000+0  89789-4 0  9999
2 54021  54.9991 105.4286 0016207 124.3993 235.8536 14.62316153201001
OTB-3-GAZELLE           
1 54023U 22127A   26195.52469922  .00000062  00000+0  31661-4 0  9998
2 54023  98.3960 186.8146 0014432 104.8096 255.4694 14.42683859198303
ASO-S                   
1 54029U 22129A   26195.61017439  .00000094  00000+0  34170-4 0  9991
2 54029  98.2756 200.2989 0014615  14.0243 346.1355 14.52074671199407
HJ-2E                   
1 54035U 22132A   26195.62567332  .00004370  00000+0  18979-3 0  9994
2 54035  97.3799 199.5154 0018006 272.6509  87.2666 15.22689666208593
COSMOS 2561             
1 54109U 22137A   26195.17674843  .00009042  00000+0  14970-3 0  9995
2 54109  96.9175 253.1773 0008173 285.4517  74.5834 15.52358222210534
GONETS-M 23             
1 54150U 22139A   26195.55123620  .00000006  00000+0 -26343-4 0  9997
2 54150  82.5094 331.2884 0022107 159.8441 200.3517 12.42891873169041
GONETS-M 24             
1 54151U 22139B   26195.60479447  .00000008  00000+0 -13756-4 0  9991
2 54151  82.5011 330.2962 0017178 169.3262 190.8186 12.42892454169058
GONETS-M 25             
1 54152U 22139C   26195.59122687  .00000006  00000+0 -31010-4 0  9992
2 54152  82.5076 331.0058 0021112 168.3534 191.8039 12.42890825169057
SKIF-D                  
1 54153U 22139D   26195.03811008  .00000011  00000+0  00000+0 0  9999
2 54153  89.9492  96.6605 0007433 188.0106 172.0487  5.00430515 65456
MATS                    
1 54227U 22147A   26195.56660844  .00001528  00000+0  11044-3 0  9996
2 54227  97.6828 197.0474 0014120 105.2420 255.0369 15.05499865201887
EOS-6 (OCEANSAT-3)      
1 54361U 22158A   26195.61493394  .00000105  00000+0  40951-4 0  9997
2 54361  98.3550 293.4462 0000384 142.2002 217.9217 14.46984162191800
DONGPO 09               
1 54685U 22167D   26195.62966653  .00007022  00000+0  19689-3 0  9998
2 54685  97.6912   7.8765 0002841  54.0285 306.1221 15.36925599199666
DONGPO 08               
1 54686U 22167E   26195.52831456  .00006306  00000+0  19300-3 0  9994
2 54686  97.6876   4.8179 0009277  76.0204 284.2070 15.34176221199517
2022-167F               
1 54687U 22167F   26195.56891722  .01090756  25380-5  69766-3 0  9999
2 54687  97.5968  27.2870 0007475 248.4764 111.5727 16.17496712201214
DONGPO 10               
1 54689U 22167H   26195.58566372  .00006959  00000+0  20748-3 0  9997
2 54689  97.6958   6.8940 0005017  30.2990 329.8541 15.34994523199568
JILIN-1 GAOFEN 03D48    
1 54695U 22167P   26195.63462682  .00006406  00000+0  18642-3 0  9996
2 54695  97.6892   6.3328 0006510  32.2375 327.9265 15.35785276199606
STAR VIBE               
1 55009U 23001A   26195.60251403  .00008392  00000+0  19011-3 0  9995
2 55009  97.3160 260.1887 0005562  33.1987 326.9609 15.43343489196452
BRO-8                   
1 55011U 23001C   26195.61629345  .00019411  00000+0  33877-3 0  9993
2 55011  97.3190 261.2256 0004893  42.1827 317.9801 15.50726931196458
CONNECTA T1.2           
1 55012U 23001D   26195.44744788  .00027573  00000+0  44526-3 0  9995
2 55012  97.3249 266.6580 0003774   8.6976 351.4342 15.52845265196774
BIRKELAND               
1 55015U 23001G   26195.56136493  .00005880  00000+0  14684-3 0  9998
2 55015  97.3338 263.6077 0006469  23.2382 336.9156 15.40532837196565
ION SCV-008             
1 55051U 23001AU  26195.53292081  .00003780  00000+0  13726-3 0  9994
2 55051  97.5723 292.3148 0013185 275.7458  84.2278 15.28875790195510
ION SCV-007             
1 55060U 23001BD  26195.62456061  .00000187  00000+0  33347-4 0  9994
2 55060  97.8994 258.0935 0011045 244.2182 115.7889 14.77575883190307
HUYGENS                 
1 55093U 23001CN  26195.56144990  .00005938  00000+0  14821-3 0  9992
2 55093  97.3241 262.8018 0008472 355.3463   4.7704 15.40532270196587
