OBJECT_NAME,OBJECT_ID,EPOCH,MEAN_MOTION,ECCENTRICITY,INCLINATION,RA_OF_ASC_NODE,ARG_OF_PERICENTER,MEAN_ANOMALY,EPHEMERIS_TYPE,CLASSIFICATION_TYPE,NORAD_CAT_ID,ELEMENT_SET_NO,REV_AT_EPOCH,BSTAR,MEAN_MOTION_DOT,MEAN_MOTION_DDOT
STARLINK-4621,2022-105AE,2026-07-14T15:05:00.224448,15.05657449,.00017361,97.2833,73.2066,93.3539,266.7887,0,U,53676,999,21233,-.11970881E-4,-.229E-5,0
SHERPA-LTC2,2022-107BG,2026-07-14T10:53:51.425088,14.69914994,.03928365,53.2368,104.8874,302.6373,53.7262,0,U,53754,999,20655,.12009761E-3,.2106E-4,0
CENTISPACE-1 S3,2022-108A,2026-07-14T13:36:56.089440,14.61282842,.00107372,53.5338,302.0386,63.2001,297.0071,0,U,53757,999,20553,.62190932E-4,.12E-5,0
CENTISPACE-1 S4,2022-108B,2026-07-14T14:34:15.718368,14.61971603,.00100427,53.5312,299.2612,52.7481,307.4409,0,U,53758,999,20557,.71020196E-4,.168E-5,0
BLUEWALKER-3,2022-111AL,2026-07-14T11:09:18.021024,15.38604732,.00045555,53.2288,265.8794,263.3049,96.7438,0,U,53807,999,21440,.10856871E-3,.3807E-4,0
YUNHAI-1 03,2022-115A,2026-07-14T13:31:28.335360,14.32736310,.00041853,98.5543,193.3643,341.4848,18.6184,0,U,53877,999,19943,.95080865E-4,.215E-5,0
CENTISPACE-1 S5,2022-126A,2026-07-14T13:10:42.369600,14.63056005,.00144052,54.9989,103.4624,123.2184,237.0194,0,U,54020,999,20104,.10855147E-3,.372E-5,0
CENTISPACE-1 S6,2022-126B,2026-07-14T13:20:38.071680,14.62316153,.00162079,54.9991,105.4286,124.3993,235.8536,0,U,54021,999,20100,.89789481E-4,.268E-5,0
OTB-3-GAZELLE,2022-127A,2026-07-14T12:35:34.012608,14.42683859,.00144326,98.3960,186.8146,104.8096,255.4694,0,U,54023,999,19830,.31660824E-4,.62E-6,0
ASO-S,2022-129A,2026-07-14T14:38:39.067296,14.52074671,.00146155,98.2756,200.2989,14.0243,346.1355,0,U,54029,999,19940,.34170284E-4,.94E-6,0
HJ-2E,2022-132A,2026-07-14T15:00:58.174848,15.22689666,.00180061,97.3799,199.5154,272.6509,87.2666,0,U,54035,999,20859,.18978652E-3,.437E-4,0
COSMOS 2561,2022-137A,2026-07-14T04:14:31.064352,15.52358222,.0008173,96.9175,253.1773,285.4517,74.5834,0,U,54109,999,21053,.1497E-3,.9042E-4,0
GONETS-M 23,2022-139A,2026-07-14T13:13:46.807680,12.42891873,.00221078,82.5094,331.2884,159.8441,200.3517,0,U,54150,999,16904,-.26343472E-4,.6E-7,0
GONETS-M 24,2022-139B,2026-07-14T14:30:54.242208,12.42892454,.00171787,82.5011,330.2962,169.3262,190.8186,0,U,54151,999,16905,-.1375569E-4,.8E-7,0
GONETS-M 25,2022-139C,2026-07-14T14:11:22.001568,12.42890825,.00211121,82.5076,331.0058,168.3534,191.8039,0,U,54152,999,16905,-.31009954E-4,.6E-7,0
SKIF-D,2022-139D,2026-07-14T00:54:52.710912,5.00430515,.00074336,89.9492,96.6605,188.0106,172.0487,0,U,54153,999,6545,0,.11E-6,0
MATS,2022-147A,2026-07-14T13:35:54.969216,15.05499865,.00141201,97.6828,197.0474,105.2420,255.0369,0,U,54227,999,20188,.11044145E-3,.1528E-4,0
EOS-6 (OCEANSAT-3),2022-158A,2026-07-14T14:45:30.292416,14.46984162,.00003843,98.3550,293.4462,142.2002,217.9217,0,U,54361,999,19180,.40950957E-4,.105E-5,0
DONGPO 09,2022-167D,2026-07-14T15:06:43.188192,15.36925599,.0002841,97.6912,7.8765,54.0285,306.1221,0,U,54685,999,19966,.19688948E-3,.7022E-4,0
DONGPO 08,2022-167E,2026-07-14T12:40:46.377984,15.34176221,.00092779,97.6876,4.8179,76.0204,284.2070,0,U,54686,999,19951,.19300035E-3,.6306E-4,0
2022-167F,2022-167F,2026-07-14T13:39:14.447808,16.17496712,.00074751,97.5968,27.2870,248.4764,111.5727,0,U,54687,999,20121,.69766423E-3,.1090756E-1,.2537977E-5
DONGPO 10,2022-167H,2026-07-14T14:03:21.345408,15.34994523,.0005017,97.6958,6.8940,30.2990,329.8541,0,U,54689,999,19956,.20748301E-3,.6959E-4,0
JILIN-1 GAOFEN 03D48,2022-167P,2026-07-14T15:13:51.757248,15.35785276,.00065106,97.6892,6.3328,32.2375,327.9265,0,U,54695,999,19960,.18641976E-3,.6406E-4,0
STAR VIBE,2023-001A,2026-07-14T14:27:37.212192,15.43343489,.0005562,97.3160,260.1887,33.1987,326.9609,0,U,55009,999,19645,.19011244E-3,.8392E-4,0
BRO-8,2023-001C,2026-07-14T14:47:27.754080,15.50726931,.00048937,97.3190,261.2256,42.1827,317.9801,0,U,55011,999,19645,.33876527E-3,.19411E-3,0
CONNECTA T1.2,2023-001D,2026-07-14T10:44:19.496832,15.52845265,.00037744,97.3249,266.6580,8.6976,351.4342,0,U,55012,999,19677,.44526275E-3,.27573E-3,0
BIRKELAND,2023-001G,2026-07-14T13:28:21.929952,15.40532837,.00064698,97.3338,263.6077,23.2382,336.9156,0,U,55015,999,19656,.14684166E-3,.588E-4,0
ION SCV-008,2023-001AU,2026-07-14T12:47:24.357984,15.28875790,.00131858,97.5723,292.3148,275.7458,84.2278,0,U,55051,999,19551,.13725614E-3,.378E-4,0
ION SCV-007,2023-001BD,2026-07-14T14:59:22.036704,14.77575883,.00110456,97.8994,258.0935,244.2182,115.7889,0,U,55060,999,19030,.33347332E-4,.187E-5,0
HUYGENS,2023-001CN,2026-07-14T13:28:29.271360,15.40532270,.00084721,97.3241,262.8018,355.3463,4.7704,0,U,55093,999,19658,.14820557E-3,.5938E-4,0
